[
    {
        "Altitude(m)": 604221.2002493957,
        "Argument of Periapsis(deg)": 0.0,
        "Eccentricity": 0.0,
        "Inclination(deg)": 60.0,
        "Latitude(deg)": 14.117222599772973,
        "Longitude(deg)": -26.665873243750482,
        "Mean Anomaly(deg)": 16.363599999999998,
        "RAAN(deg)": 65.0,
        "Satellite Name": "Test1 287",
        "Satellite Number": 287,
        "Semi-Major Axis(m)": 6980739.136638005,
        "Time(s)": 0
    },
    {
        "Altitude(m)": 604235.3411206217,
        "Argument of Periapsis(deg)": 0.00010418945913296404,
        "Eccentricity": 0.0,
        "Inclination(deg)": 60.0,
        "Latitude(deg)": 14.651619912767082,
        "Longitude(deg)": -26.377427398346295,
        "Mean Anomaly(deg)": 16.983706145461827,
        "RAAN(deg)": 64.99957995086025,
        "Satellite Name": "Test1 287",
        "Satellite Number": 287,
        "Semi-Major Axis(m)": 6980739.136638005,
        "Time(s)": 10
    },
    {
        "Altitude(m)": 604252.3790995519,
        "Argument of Periapsis(deg)": 0.0002083789182659281,
        "Eccentricity": 0.0,
        "Inclination(deg)": 60.0,
        "Latitude(deg)": 15.18552741715558,
        "Longitude(deg)": -26.087378559312366,
        "Mean Anomaly(deg)": 17.603812290923667,
        "RAAN(deg)": 64.99915990172052,
        "Satellite Name": "Test1 287",
        "Satellite Number": 287,
        "Semi-Major Axis(m)": 6980739.136638005,
        "Time(s)": 20
    },
    {
        "Altitude(m)": 604272.2823574303,
        "Argument of Periapsis(deg)": 0.00031256837739889213,
        "Eccentricity": 0.0,
        "Inclination(deg)": 60.0,
        "Latitude(deg)": 15.718923808471096,
        "Longitude(deg)": -25.795659214643827,
        "Mean Anomaly(deg)": 18.223918436385496,
        "RAAN(deg)": 64.99873985258077,
        "Satellite Name": "Test1 287",
        "Satellite Number": 287,
        "Semi-Major Axis(m)": 6980739.136638005,
        "Time(s)": 30
    },
    {
        "Altitude(m)": 604295.0177907596,
        "Argument of Periapsis(deg)": 0.0004167578365318562,
        "Eccentricity": 0.0,
        "Inclination(deg)": 60.0,
        "Latitude(deg)": 16.251787446532866,
        "Longitude(deg)": -25.502200329722598,
        "Mean Anomaly(deg)": 18.84402458184732,
        "RAAN(deg)": 64.99831980344103,
        "Satellite Name": "Test1 287",
        "Satellite Number": 287,
        "Semi-Major Axis(m)": 6980739.136638005,
        "Time(s)": 40
    },
    {
        "Altitude(m)": 604320.5510402453,
        "Argument of Periapsis(deg)": 0.0005209472956648203,
        "Eccentricity": 0.0,
        "Inclination(deg)": 60.0,
        "Latitude(deg)": 16.784096339408688,
        "Longitude(deg)": -25.20693231173592,
        "Mean Anomaly(deg)": 19.46413072730915,
        "RAAN(deg)": 64.9978997543013,
        "Satellite Name": "Test1 287",
        "Satellite Number": 287,
        "Semi-Major Axis(m)": 6980739.136638005,
        "Time(s)": 50
    },
    {
        "Altitude(m)": 604348.8465103114,
        "Argument of Periapsis(deg)": 0.0006251367547977843,
        "Eccentricity": 0.0,
        "Inclination(deg)": 60.0,
        "Latitude(deg)": 17.315828126896392,
        "Longitude(deg)": -24.9097844603683,
        "Mean Anomaly(deg)": 20.084236872770976,
        "RAAN(deg)": 64.99747970516155,
        "Satellite Name": "Test1 287",
        "Satellite Number": 287,
        "Semi-Major Axis(m)": 6980739.136638005,
        "Time(s)": 60
    },
    {
        "Altitude(m)": 604379.8673892166,
        "Argument of Periapsis(deg)": 0.0007293262139307483,
        "Eccentricity": 0.0,
        "Inclination(deg)": 60.0,
        "Latitude(deg)": 17.846960063498837,
        "Longitude(deg)": -24.61068441761399,
        "Mean Anomaly(deg)": 20.704343018232816,
        "RAAN(deg)": 64.99705965602182,
        "Satellite Name": "Test1 287",
        "Satellite Number": 287,
        "Semi-Major Axis(m)": 6980739.136638005,
        "Time(s)": 70
    },
    {
        "Altitude(m)": 604413.5756697198,
        "Argument of Periapsis(deg)": 0.0008335156730637124,
        "Eccentricity": 0.0,
        "Inclination(deg)": 60.0,
        "Latitude(deg)": 18.377469000866267,
        "Longitude(deg)": -24.309559129558497,
        "Mean Anomaly(deg)": 21.324449163694645,
        "RAAN(deg)": 64.99663960688207,
        "Satellite Name": "Test1 287",
        "Satellite Number": 287,
        "Semi-Major Axis(m)": 6980739.136638005,
        "Time(s)": 80
    },
    {
        "Altitude(m)": 604449.9321703363,
        "Argument of Periapsis(deg)": 0.0009377051321966765,
        "Eccentricity": 0.0,
        "Inclination(deg)": 60.0,
        "Latitude(deg)": 18.90733136968591,
        "Longitude(deg)": -24.006334294361615,
        "Mean Anomaly(deg)": 21.944555309156474,
        "RAAN(deg)": 64.99621955774234,
        "Satellite Name": "Test1 287",
        "Satellite Number": 287,
        "Semi-Major Axis(m)": 6980739.136638005,
        "Time(s)": 90
    },
    {
        "Altitude(m)": 604488.8965571413,
        "Argument of Periapsis(deg)": 0.0010418945913296407,
        "Eccentricity": 0.0,
        "Inclination(deg)": 60.0,
        "Latitude(deg)": 19.436523160991076,
        "Longitude(deg)": -23.700933809291197,
        "Mean Anomaly(deg)": 22.564661454618314,
        "RAAN(deg)": 64.99579950860257,
        "Satellite Name": "Test1 287",
        "Satellite Number": 287,
        "Semi-Major Axis(m)": 6980739.136638005,
        "Time(s)": 100
    },
    {
        "Altitude(m)": 604530.4273660842,
        "Argument of Periapsis(deg)": 0.0011460840504626045,
        "Eccentricity": 0.0,
        "Inclination(deg)": 60.0,
        "Latitude(deg)": 19.965019906860928,
        "Longitude(deg)": -23.393280729662898,
        "Mean Anomaly(deg)": 23.18476760008014,
        "RAAN(deg)": 64.99537945946282,
        "Satellite Name": "Test1 287",
        "Satellite Number": 287,
        "Semi-Major Axis(m)": 6980739.136638005,
        "Time(s)": 110
    },
    {
        "Altitude(m)": 604574.48202587,
        "Argument of Periapsis(deg)": 0.0012502735095955685,
        "Eccentricity": 0.0,
        "Inclination(deg)": 60.0,
        "Latitude(deg)": 20.492796660488878,
        "Longitude(deg)": -23.083296713920483,
        "Mean Anomaly(deg)": 23.80487374554197,
        "RAAN(deg)": 64.99495941032309,
        "Satellite Name": "Test1 287",
        "Satellite Number": 287,
        "Semi-Major Axis(m)": 6980739.136638005,
        "Time(s)": 120
    },
    {
        "Altitude(m)": 604621.0168813302,
        "Argument of Periapsis(deg)": 0.0013544629687285324,
        "Eccentricity": 0.0,
        "Inclination(deg)": 60.0,
        "Latitude(deg)": 21.019827975589006,
        "Longitude(deg)": -22.770901467714694,
        "Mean Anomaly(deg)": 24.424979891003794,
        "RAAN(deg)": 64.99453936118334,
        "Satellite Name": "Test1 287",
        "Satellite Number": 287,
        "Semi-Major Axis(m)": 6980739.136638005,
        "Time(s)": 130
    },
    {
        "Altitude(m)": 604669.987217305,
        "Argument of Periapsis(deg)": 0.0014586524278614966,
        "Eccentricity": 0.0,
        "Inclination(deg)": 60.0,
        "Latitude(deg)": 21.546087885109817,
        "Longitude(deg)": -22.456013699839485,
        "Mean Anomaly(deg)": 25.045086036465637,
        "RAAN(deg)": 64.99411931204361,
        "Satellite Name": "Test1 287",
        "Satellite Number": 287,
        "Semi-Major Axis(m)": 6980739.136638005,
        "Time(s)": 140
    },
    {
        "Altitude(m)": 604721.3472830072,
        "Argument of Periapsis(deg)": 0.0015628418869944607,
        "Eccentricity": 0.0,
        "Inclination(deg)": 60.0,
        "Latitude(deg)": 22.071549879230073,
        "Longitude(deg)": -22.13855056426975,
        "Mean Anomaly(deg)": 25.665192181927463,
        "RAAN(deg)": 64.99369926290386,
        "Satellite Name": "Test1 287",
        "Satellite Number": 287,
        "Semi-Major Axis(m)": 6980739.136638005,
        "Time(s)": 150
    },
    {
        "Altitude(m)": 604775.0503168623,
        "Argument of Periapsis(deg)": 0.0016670313461274247,
        "Eccentricity": 0.0,
        "Inclination(deg)": 60.0,
        "Latitude(deg)": 22.596186882604584,
        "Longitude(deg)": -21.818427101165838,
        "Mean Anomaly(deg)": 26.28529832738929,
        "RAAN(deg)": 64.99327921376413,
        "Satellite Name": "Test1 287",
        "Satellite Number": 287,
        "Semi-Major Axis(m)": 6980739.136638005,
        "Time(s)": 160
    },
    {
        "Altitude(m)": 604831.0485718282,
        "Argument of Periapsis(deg)": 0.0017712208052603888,
        "Eccentricity": 0.0,
        "Inclination(deg)": 60.0,
        "Latitude(deg)": 23.119971230825396,
        "Longitude(deg)": -21.495557189713644,
        "Mean Anomaly(deg)": 26.905404472851117,
        "RAAN(deg)": 64.99285916462438,
        "Satellite Name": "Test1 287",
        "Satellite Number": 287,
        "Semi-Major Axis(m)": 6980739.136638005,
        "Time(s)": 170
    },
    {
        "Altitude(m)": 604889.2933411268,
        "Argument of Periapsis(deg)": 0.001875410264393353,
        "Eccentricity": 0.0,
        "Inclination(deg)": 60.0,
        "Latitude(deg)": 23.642874646071885,
        "Longitude(deg)": -21.169852987054934,
        "Mean Anomaly(deg)": 27.52551061831295,
        "RAAN(deg)": 64.99243911548463,
        "Satellite Name": "Test1 287",
        "Satellite Number": 287,
        "Semi-Major Axis(m)": 6980739.136638005,
        "Time(s)": 180
    },
    {
        "Altitude(m)": 604949.7349844462,
        "Argument of Periapsis(deg)": 0.0019795997235263173,
        "Eccentricity": 0.0,
        "Inclination(deg)": 60.0,
        "Latitude(deg)": 24.164868211913863,
        "Longitude(deg)": -20.841224366184925,
        "Mean Anomaly(deg)": 28.14561676377479,
        "RAAN(deg)": 64.9920190663449,
        "Satellite Name": "Test1 287",
        "Satellite Number": 287,
        "Semi-Major Axis(m)": 6980739.136638005,
        "Time(s)": 190
    }
]